{
  "type": "FeatureCollection",
  "features": [
    {
      "type": "Feature",
      "properties": {
        "norad_id": 58701,
        "name": "TIANMU-1 16",
        "group": "weather",
        "lat": 26.420533501288308,
        "lon": -3.4504186380036415,
        "alt_km": 492.8899204831714,
        "timestamp": "2025-12-17T23:38:06.507801+00:00",
        "meta_object_name": "TIANMU-1 16",
        "meta_object_id": "2024-004B",
        "meta_epoch": "2025-12-17T15:05:17.831040",
        "meta_mean_motion": 15.24498154,
        "meta_eccentricity": 0.00043424,
        "meta_inclination": 97.4562,
        "meta_ra_of_asc_node": 172.4643,
        "meta_arg_of_pericenter": 274.1474,
        "meta_mean_anomaly": 85.9267,
        "meta_ephemeris_type": 0,
        "meta_classification_type": "U",
        "meta_norad_cat_id": 58701,
        "meta_element_set_no": 999,
        "meta_rev_at_epoch": 10809,
        "meta_bstar": 0.00022233347,
        "meta_mean_motion_dot": 5.394e-05,
        "meta_mean_motion_ddot": 0,
        "tle_line1": "1 58701U 24004B   25351.62867860  .00005394  00000+0  22233-3 0  9995",
        "tle_line2": "2 58701  97.4562 172.4643 0004342 274.1474  85.9267 15.24498154108093"
      },
      "geometry": {
        "type": "Point",
        "coordinates": [
          -3.4504186380036415,
          26.420533501288308
        ]
      }
    },
    {
      "type": "Feature",
      "properties": {
        "norad_id": 58702,
        "name": "TIANMU-1 17",
        "group": "weather",
        "lat": -57.856883755256234,
        "lon": -18.804569747352755,
        "alt_km": 497.35707721999916,
        "timestamp": "2025-12-17T23:38:06.507811+00:00",
        "meta_object_name": "TIANMU-1 17",
        "meta_object_id": "2024-004C",
        "meta_epoch": "2025-12-17T14:42:54.787104",
        "meta_mean_motion": 15.2454178,
        "meta_eccentricity": 0.00035151,
        "meta_inclination": 97.4596,
        "meta_ra_of_asc_node": 172.8614,
        "meta_arg_of_pericenter": 276.8624,
        "meta_mean_anomaly": 83.2213,
        "meta_ephemeris_type": 0,
        "meta_classification_type": "U",
        "meta_norad_cat_id": 58702,
        "meta_element_set_no": 999,
        "meta_rev_at_epoch": 10808,
        "meta_bstar": 0.00022548326,
        "meta_mean_motion_dot": 5.478e-05,
        "meta_mean_motion_ddot": 0,
        "tle_line1": "1 58702U 24004C   25351.61313411  .00005478  00000+0  22548-3 0  9995",
        "tle_line2": "2 58702  97.4596 172.8614 0003515 276.8624  83.2213 15.24541780108085"
      },
      "geometry": {
        "type": "Point",
        "coordinates": [
          -18.804569747352755,
          -57.856883755256234
        ]
      }
    },
    {
      "type": "Feature",
      "properties": {
        "norad_id": 58703,
        "name": "TIANMU-1 18",
        "group": "weather",
        "lat": -29.946202454617673,
        "lon": 177.75796643489568,
        "alt_km": 497.11566486756874,
        "timestamp": "2025-12-17T23:38:06.507821+00:00",
        "meta_object_name": "TIANMU-1 18",
        "meta_object_id": "2024-004D",
        "meta_epoch": "2025-12-17T15:53:28.006080",
        "meta_mean_motion": 15.24527761,
        "meta_eccentricity": 0.00028643,
        "meta_inclination": 97.4613,
        "meta_ra_of_asc_node": 173.1066,
        "meta_arg_of_pericenter": 275.3419,
        "meta_mean_anomaly": 84.7492,
        "meta_ephemeris_type": 0,
        "meta_classification_type": "U",
        "meta_norad_cat_id": 58703,
        "meta_element_set_no": 999,
        "meta_rev_at_epoch": 10809,
        "meta_bstar": 0.00022846435,
        "meta_mean_motion_dot": 5.549e-05,
        "meta_mean_motion_ddot": 0,
        "tle_line1": "1 58703U 24004D   25351.66212970  .00005549  00000+0  22846-3 0  9999",
        "tle_line2": "2 58703  97.4613 173.1066 0002864 275.3419  84.7492 15.24527761108092"
      },
      "geometry": {
        "type": "Point",
        "coordinates": [
          177.75796643489568,
          -29.946202454617673
        ]
      }
    },
    {
      "type": "Feature",
      "properties": {
        "norad_id": 58990,
        "name": "INSAT-3DS",
        "group": "weather",
        "lat": 0.03197279428928286,
        "lon": 163.4546079329411,
        "alt_km": 35787.24218167134,
        "timestamp": "2025-12-17T23:38:06.507835+00:00",
        "meta_object_name": "INSAT-3DS",
        "meta_object_id": "2024-033A",
        "meta_epoch": "2025-12-17T13:42:57.803904",
        "meta_mean_motion": 1.00272525,
        "meta_eccentricity": 0.00011147,
        "meta_inclination": 0.049,
        "meta_ra_of_asc_node": 113.9797,
        "meta_arg_of_pericenter": 156.2127,
        "meta_mean_anomaly": 104.0916,
        "meta_ephemeris_type": 0,
        "meta_classification_type": "U",
        "meta_norad_cat_id": 58990,
        "meta_element_set_no": 999,
        "meta_rev_at_epoch": 4524,
        "meta_bstar": 0,
        "meta_mean_motion_dot": -1.31e-06,
        "meta_mean_motion_ddot": 0,
        "tle_line1": "1 58990U 24033A   25351.57150236 -.00000131  00000+0  00000+0 0  9992",
        "tle_line2": "2 58990   0.0490 113.9797 0001114 156.2127 104.0916  1.00272525 45244"
      },
      "geometry": {
        "type": "Point",
        "coordinates": [
          163.4546079329411,
          0.03197279428928286
        ]
      }
    },
    {
      "type": "Feature",
      "properties": {
        "norad_id": 59051,
        "name": "METEOR-M2 4",
        "group": "weather",
        "lat": 19.68625248202188,
        "lon": -54.32054434205888,
        "alt_km": 813.3850416556033,
        "timestamp": "2025-12-17T23:38:06.507847+00:00",
        "meta_object_name": "METEOR-M2 4",
        "meta_object_id": "2024-039A",
        "meta_epoch": "2025-12-17T15:06:02.416032",
        "meta_mean_motion": 14.2240206,
        "meta_eccentricity": 0.00067761,
        "meta_inclination": 98.6772,
        "meta_ra_of_asc_node": 308.4615,
        "meta_arg_of_pericenter": 344.2879,
        "meta_mean_anomaly": 15.8088,
        "meta_ephemeris_type": 0,
        "meta_classification_type": "U",
        "meta_norad_cat_id": 59051,
        "meta_element_set_no": 999,
        "meta_rev_at_epoch": 9345,
        "meta_bstar": 2.6714477e-05,
        "meta_mean_motion_dot": 1.6e-07,
        "meta_mean_motion_ddot": 0,
        "tle_line1": "1 59051U 24039A   25351.62919463  .00000016  00000+0  26714-4 0  9994",
        "tle_line2": "2 59051  98.6772 308.4615 0006776 344.2879  15.8088 14.22402060 93453"
      },
      "geometry": {
        "type": "Point",
        "coordinates": [
          -54.32054434205888,
          19.68625248202188
        ]
      }
    },
    {
      "type": "Feature",
      "properties": {
        "norad_id": 60133,
        "name": "GOES 19",
        "group": "weather",
        "lat": -0.0014467772602627903,
        "lon": 6.190490543962712,
        "alt_km": 35782.95111608686,
        "timestamp": "2025-12-17T23:38:06.507858+00:00",
        "meta_object_name": "GOES 19",
        "meta_object_id": "2024-119A",
        "meta_epoch": "2025-12-17T12:58:09.594912",
        "meta_mean_motion": 1.00271892,
        "meta_eccentricity": 0.00010397,
        "meta_inclination": 0.0031,
        "meta_ra_of_asc_node": 210.9767,
        "meta_arg_of_pericenter": 111.4758,
        "meta_mean_anomaly": 243.3164,
        "meta_ephemeris_type": 0,
        "meta_classification_type": "U",
        "meta_norad_cat_id": 60133,
        "meta_element_set_no": 999,
        "meta_rev_at_epoch": 514,
        "meta_bstar": 0,
        "meta_mean_motion_dot": -2.24e-06,
        "meta_mean_motion_ddot": 0,
        "tle_line1": "1 60133U 24119A   25351.54038883 -.00000224  00000+0  00000+0 0  9992",
        "tle_line2": "2 60133   0.0031 210.9767 0001039 111.4758 243.3164  1.00271892  5144"
      },
      "geometry": {
        "type": "Point",
        "coordinates": [
          6.190490543962712,
          -0.0014467772602627903
        ]
      }
    },
    {
      "type": "Feature",
      "properties": {
        "norad_id": 65815,
        "name": "FENGYUN 3H",
        "group": "weather",
        "lat": -31.514556457801685,
        "lon": 106.10005375490117,
        "alt_km": 831.845267331596,
        "timestamp": "2025-12-17T23:38:06.507868+00:00",
        "meta_object_name": "FENGYUN 3H",
        "meta_object_id": "2025-219A",
        "meta_epoch": "2025-12-17T14:11:04.782912",
        "meta_mean_motion": 14.19906054,
        "meta_eccentricity": 6.818e-05,
        "meta_inclination": 98.6589,
        "meta_ra_of_asc_node": 291.0761,
        "meta_arg_of_pericenter": 101.2597,
        "meta_mean_anomaly": 258.8656,
        "meta_ephemeris_type": 0,
        "meta_classification_type": "U",
        "meta_norad_cat_id": 65815,
        "meta_element_set_no": 999,
        "meta_rev_at_epoch": 1161,
        "meta_bstar": 5.0650271e-05,
        "meta_mean_motion_dot": 6.4e-07,
        "meta_mean_motion_ddot": 0,
        "tle_line1": "1 65815U 25219A   25351.59102758  .00000064  00000+0  50650-4 0  9996",
        "tle_line2": "2 65815  98.6589 291.0761 0000681 101.2597 258.8656 14.19906054 11616"
      },
      "geometry": {
        "type": "Point",
        "coordinates": [
          106.10005375490117,
          -31.514556457801685
        ]
      }
    }
  ]
}